[{"OBJECT_NAME":"KINEIS-1D","OBJECT_ID":"2024-114D","EPOCH":"2026-03-10T00:18:20.784384","MEAN_MOTION":14.76114357,"ECCENTRICITY":0.00024808,"INCLINATION":97.9968,"RA_OF_ASC_NODE":90.2039,"ARG_OF_PERICENTER":123.4456,"MEAN_ANOMALY":236.6991,"EPHEMERIS_TYPE":0,"CLASSIFICATION_TYPE":"U","NORAD_CAT_ID":60082,"ELEMENT_SET_NO":999,"REV_AT_EPOCH":9249,"BSTAR":0.00015372971,"MEAN_MOTION_DOT":1.01e-5,"MEAN_MOTION_DDOT":0},{"OBJECT_NAME":"COSMOS 2251 DEB","OBJECT_ID":"1993-036UW","EPOCH":"2026-03-09T03:43:02.329248","MEAN_MOTION":14.74668863,"ECCENTRICITY":0.00118364,"INCLINATION":74.0189,"RA_OF_ASC_NODE":333.4916,"ARG_OF_PERICENTER":33.5956,"MEAN_ANOMALY":117.2317,"EPHEMERIS_TYPE":0,"CLASSIFICATION_TYPE":"U","NORAD_CAT_ID":34560,"ELEMENT_SET_NO":999,"REV_AT_EPOCH":89524,"BSTAR":0.0025100572,"MEAN_MOTION_DOT":0.00016786,"MEAN_MOTION_DDOT":0}]
